BEIDOU-3 M7 (C27)       
1 43107U 18003A   24169.09878388 -.00000085  00000+0  00000+0 0  9992
2 43107  54.9361 327.6281 0004773  77.5053 282.5436  1.86232639 43751
BEIDOU-3 M8 (C28)       
1 43108U 18003B   24169.03921406 -.00000086  00000+0  00000+0 0  9998
2 43108  54.9291 327.6157 0002627 251.7759 108.1910  1.86231084 43765
BEIDOU-3 M4 (C22)       
1 43207U 18018A   24168.40660055 -.00000045  00000+0  00000+0 0  9999
2 43207  56.0215  87.3750 0006926 357.2645   2.7267  1.86231572 43132
BEIDOU-3 M3 (C21)       
1 43208U 18018B   24168.47318684 -.00000045  00000+0  00000+0 0  9995
2 43208  56.0210  87.3771 0008816 321.7585  38.1741  1.86231473 43130
BEIDOU-3 M9 (C29)       
1 43245U 18029A   24169.23137349 -.00000085  00000+0  00000+0 0  9994
2 43245  54.8196 325.3316 0000605 132.9479 227.0507  1.86232901 42306
BEIDOU-3 M10 (C30)      
1 43246U 18029B   24169.16105219 -.00000085  00000+0  00000+0 0  9998
2 43246  54.8167 325.3617 0003630  22.9058 337.1040  1.86233078 42289
BEIDOU-2 IGSO-7 (C16)   
1 43539U 18057A   24169.61422499 -.00000024  00000+0  00000+0 0  9999
2 43539  55.1427 169.3643 0075410 233.6728 194.9926  1.00253204 21820
BEIDOU-3 M5 (C23)       
1 43581U 18062A   24169.38412501  .00000097  00000+0  00000+0 0  9998
2 43581  54.1323 207.1275 0005303 274.9765  85.0460  1.86228903 40046
BEIDOU-3 M6 (C24)       
1 43582U 18062B   24169.24999630  .00000096  00000+0  00000+0 0  9996
2 43582  54.1319 207.1215 0004213 357.7312   2.3494  1.86229753 40046
BEIDOU-3 M12 (C26)      
1 43602U 18067A   24168.64638434  .00000091  00000+0  00000+0 0  9994
2 43602  54.2228 205.8231 0006645  18.0127 342.0901  1.86231816 39514
GSAT0218 (PRN E31)      
1 43058U 17079D   24169.45254156  .00000022  00000+0  00000+0 0  9990
2 43058  55.3395 241.5880 0004363 265.5228  94.5023  1.70474823 40571
GSAT0221 (PRN E15)      
1 43564U 18060A   24168.76673460 -.00000075  00000+0  00000+0 0  9998
2 43564  57.3039   1.4783 0002033 301.5528  58.4626  1.70475948 36720
GSAT0222 (PRN E33)      
1 43565U 18060B   24167.22549492 -.00000081  00000+0  00000+0 0  9993
2 43565  57.3079   1.5216 0001304 228.0826 131.9393  1.70475722 36730
GSAT0219 (PRN E36)      
1 43566U 18060C   24165.68761780 -.00000087  00000+0  00000+0 0  9994
2 43566  57.3070   1.5649 0001842 333.5799  26.4411  1.70475997 36687
GSAT0220 (PRN E13)      
1 43567U 18060D   24168.84115821 -.00000075  00000+0  00000+0 0  9992
2 43567  57.3071   1.4805 0001764 322.1141  37.9089  1.70475952 36724
IRNSS-1I                
1 43286U 18035A   24169.85118707  .00000090  00000+0  00000+0 0  9996
2 43286  29.1146  85.6219 0018209 182.3657 359.9772  1.00275718 22750
COSMOS 2527 (756)       
1 43508U 18053A   24169.85357924 -.00000017  00000+0  00000+0 0  9999
2 43508  65.2043  98.3060 0008165 239.8498 120.0607  2.13102380 46737
