[{"OBJECT_NAME":"GSAT0218 (PRN E31)","OBJECT_ID":"2017-079D","EPOCH":"2024-06-17T10:51:39.590784","MEAN_MOTION":1.70474823,"ECCENTRICITY":0.0004363,"INCLINATION":55.3395,"RA_OF_ASC_NODE":241.588,"ARG_OF_PERICENTER":265.5228,"MEAN_ANOMALY":94.5023,"EPHEMERIS_TYPE":0,"CLASSIFICATION_TYPE":"U","NORAD_CAT_ID":43058,"ELEMENT_SET_NO":999,"REV_AT_EPOCH":4057,"BSTAR":0,"MEAN_MOTION_DOT":2.2e-7,"MEAN_MOTION_DDOT":0},{"OBJECT_NAME":"BEIDOU-3 M7 (C27)","OBJECT_ID":"2018-003A","EPOCH":"2024-06-17T02:22:14.927232","MEAN_MOTION":1.86232639,"ECCENTRICITY":0.0004773,"INCLINATION":54.9361,"RA_OF_ASC_NODE":327.6281,"ARG_OF_PERICENTER":77.5053,"MEAN_ANOMALY":282.5436,"EPHEMERIS_TYPE":0,"CLASSIFICATION_TYPE":"U","NORAD_CAT_ID":43107,"ELEMENT_SET_NO":999,"REV_AT_EPOCH":4375,"BSTAR":0,"MEAN_MOTION_DOT":-8.5e-7,"MEAN_MOTION_DDOT":0},{"OBJECT_NAME":"BEIDOU-3 M8 (C28)","OBJECT_ID":"2018-003B","EPOCH":"2024-06-17T00:56:28.094784","MEAN_MOTION":1.86231084,"ECCENTRICITY":0.0002627,"INCLINATION":54.9291,"RA_OF_ASC_NODE":327.6157,"ARG_OF_PERICENTER":251.7759,"MEAN_ANOMALY":108.191,"EPHEMERIS_TYPE":0,"CLASSIFICATION_TYPE":"U","NORAD_CAT_ID":43108,"ELEMENT_SET_NO":999,"REV_AT_EPOCH":4376,"BSTAR":0,"MEAN_MOTION_DOT":-8.6e-7,"MEAN_MOTION_DDOT":0},{"OBJECT_NAME":"BEIDOU-3 M4 (C22)","OBJECT_ID":"2018-018A","EPOCH":"2024-06-16T09:45:30.287520","MEAN_MOTION":1.86231572,"ECCENTRICITY":0.0006926,"INCLINATION":56.0215,"RA_OF_ASC_NODE":87.375,"ARG_OF_PERICENTER":357.2645,"MEAN_ANOMALY":2.7267,"EPHEMERIS_TYPE":0,"CLASSIFICATION_TYPE":"U","NORAD_CAT_ID":43207,"ELEMENT_SET_NO":999,"REV_AT_EPOCH":4313,"BSTAR":0,"MEAN_MOTION_DOT":-4.5e-7,"MEAN_MOTION_DDOT":0},{"OBJECT_NAME":"BEIDOU-3 M3 (C21)","OBJECT_ID":"2018-018B","EPOCH":"2024-06-16T11:21:23.342976","MEAN_MOTION":1.86231473,"ECCENTRICITY":0.0008816,"INCLINATION":56.021,"RA_OF_ASC_NODE":87.3771,"ARG_OF_PERICENTER":321.7585,"MEAN_ANOMALY":38.1741,"EPHEMERIS_TYPE":0,"CLASSIFICATION_TYPE":"U","NORAD_CAT_ID":43208,"ELEMENT_SET_NO":999,"REV_AT_EPOCH":4313,"BSTAR":0,"MEAN_MOTION_DOT":-4.5e-7,"MEAN_MOTION_DDOT":0},{"OBJECT_NAME":"BEIDOU-3 M9 (C29)","OBJECT_ID":"2018-029A","EPOCH":"2024-06-17T05:33:10.669536","MEAN_MOTION":1.86232901,"ECCENTRICITY":6.05e-5,"INCLINATION":54.8196,"RA_OF_ASC_NODE":325.3316,"ARG_OF_PERICENTER":132.9479,"MEAN_ANOMALY":227.0507,"EPHEMERIS_TYPE":0,"CLASSIFICATION_TYPE":"U","NORAD_CAT_ID":43245,"ELEMENT_SET_NO":999,"REV_AT_EPOCH":4230,"BSTAR":0,"MEAN_MOTION_DOT":-8.5e-7,"MEAN_MOTION_DDOT":0},{"OBJECT_NAME":"BEIDOU-3 M10 (C30)","OBJECT_ID":"2018-029B","EPOCH":"2024-06-17T03:51:54.909216","MEAN_MOTION":1.86233078,"ECCENTRICITY":0.000363,"INCLINATION":54.8167,"RA_OF_ASC_NODE":325.3617,"ARG_OF_PERICENTER":22.9058,"MEAN_ANOMALY":337.104,"EPHEMERIS_TYPE":0,"CLASSIFICATION_TYPE":"U","NORAD_CAT_ID":43246,"ELEMENT_SET_NO":999,"REV_AT_EPOCH":4228,"BSTAR":0,"MEAN_MOTION_DOT":-8.5e-7,"MEAN_MOTION_DDOT":0},{"OBJECT_NAME":"IRNSS-1I","OBJECT_ID":"2018-035A","EPOCH":"2024-06-17T20:25:42.562848","MEAN_MOTION":1.00275718,"ECCENTRICITY":0.0018209,"INCLINATION":29.1146,"RA_OF_ASC_NODE":85.6219,"ARG_OF_PERICENTER":182.3657,"MEAN_ANOMALY":359.9772,"EPHEMERIS_TYPE":0,"CLASSIFICATION_TYPE":"U","NORAD_CAT_ID":43286,"ELEMENT_SET_NO":999,"REV_AT_EPOCH":2275,"BSTAR":0,"MEAN_MOTION_DOT":9.0e-7,"MEAN_MOTION_DDOT":0},{"OBJECT_NAME":"COSMOS 2527 (756)","OBJECT_ID":"2018-053A","EPOCH":"2024-06-17T20:29:09.246336","MEAN_MOTION":2.1310238,"ECCENTRICITY":0.0008165,"INCLINATION":65.2043,"RA_OF_ASC_NODE":98.306,"ARG_OF_PERICENTER":239.8498,"MEAN_ANOMALY":120.0607,"EPHEMERIS_TYPE":0,"CLASSIFICATION_TYPE":"U","NORAD_CAT_ID":43508,"ELEMENT_SET_NO":999,"REV_AT_EPOCH":4673,"BSTAR":0,"MEAN_MOTION_DOT":-1.7e-7,"MEAN_MOTION_DDOT":0},{"OBJECT_NAME":"BEIDOU-2 IGSO-7 (C16)","OBJECT_ID":"2018-057A","EPOCH":"2024-06-17T14:44:29.039136","MEAN_MOTION":1.00253204,"ECCENTRICITY":0.007541,"INCLINATION":55.1427,"RA_OF_ASC_NODE":169.3643,"ARG_OF_PERICENTER":233.6728,"MEAN_ANOMALY":194.9926,"EPHEMERIS_TYPE":0,"CLASSIFICATION_TYPE":"U","NORAD_CAT_ID":43539,"ELEMENT_SET_NO":999,"REV_AT_EPOCH":2182,"BSTAR":0,"MEAN_MOTION_DOT":-2.4e-7,"MEAN_MOTION_DDOT":0},{"OBJECT_NAME":"GSAT0221 (PRN E15)","OBJECT_ID":"2018-060A","EPOCH":"2024-06-16T18:24:05.869440","MEAN_MOTION":1.70475948,"ECCENTRICITY":0.0002033,"INCLINATION":57.3039,"RA_OF_ASC_NODE":1.4783,"ARG_OF_PERICENTER":301.5528,"MEAN_ANOMALY":58.4626,"EPHEMERIS_TYPE":0,"CLASSIFICATION_TYPE":"U","NORAD_CAT_ID":43564,"ELEMENT_SET_NO":999,"REV_AT_EPOCH":3672,"BSTAR":0,"MEAN_MOTION_DOT":-7.5e-7,"MEAN_MOTION_DDOT":0},{"OBJECT_NAME":"GSAT0222 (PRN E33)","OBJECT_ID":"2018-060B","EPOCH":"2024-06-15T05:24:42.761088","MEAN_MOTION":1.70475722,"ECCENTRICITY":0.0001304,"INCLINATION":57.3079,"RA_OF_ASC_NODE":1.5216,"ARG_OF_PERICENTER":228.0826,"MEAN_ANOMALY":131.9393,"EPHEMERIS_TYPE":0,"CLASSIFICATION_TYPE":"U","NORAD_CAT_ID":43565,"ELEMENT_SET_NO":999,"REV_AT_EPOCH":3673,"BSTAR":0,"MEAN_MOTION_DOT":-8.1e-7,"MEAN_MOTION_DDOT":0},{"OBJECT_NAME":"GSAT0219 (PRN E36)","OBJECT_ID":"2018-060C","EPOCH":"2024-06-13T16:30:10.177920","MEAN_MOTION":1.70475997,"ECCENTRICITY":0.0001842,"INCLINATION":57.307,"RA_OF_ASC_NODE":1.5649,"ARG_OF_PERICENTER":333.5799,"MEAN_ANOMALY":26.4411,"EPHEMERIS_TYPE":0,"CLASSIFICATION_TYPE":"U","NORAD_CAT_ID":43566,"ELEMENT_SET_NO":999,"REV_AT_EPOCH":3668,"BSTAR":0,"MEAN_MOTION_DOT":-8.7e-7,"MEAN_MOTION_DDOT":0},{"OBJECT_NAME":"GSAT0220 (PRN E13)","OBJECT_ID":"2018-060D","EPOCH":"2024-06-16T20:11:16.069344","MEAN_MOTION":1.70475952,"ECCENTRICITY":0.0001764,"INCLINATION":57.3071,"RA_OF_ASC_NODE":1.4805,"ARG_OF_PERICENTER":322.1141,"MEAN_ANOMALY":37.9089,"EPHEMERIS_TYPE":0,"CLASSIFICATION_TYPE":"U","NORAD_CAT_ID":43567,"ELEMENT_SET_NO":999,"REV_AT_EPOCH":3672,"BSTAR":0,"MEAN_MOTION_DOT":-7.5e-7,"MEAN_MOTION_DDOT":0},{"OBJECT_NAME":"BEIDOU-3 M5 (C23)","OBJECT_ID":"2018-062A","EPOCH":"2024-06-17T09:13:08.400864","MEAN_MOTION":1.86228903,"ECCENTRICITY":0.0005303,"INCLINATION":54.1323,"RA_OF_ASC_NODE":207.1275,"ARG_OF_PERICENTER":274.9765,"MEAN_ANOMALY":85.046,"EPHEMERIS_TYPE":0,"CLASSIFICATION_TYPE":"U","NORAD_CAT_ID":43581,"ELEMENT_SET_NO":999,"REV_AT_EPOCH":4004,"BSTAR":0,"MEAN_MOTION_DOT":9.7e-7,"MEAN_MOTION_DDOT":0},{"OBJECT_NAME":"BEIDOU-3 M6 (C24)","OBJECT_ID":"2018-062B","EPOCH":"2024-06-17T05:59:59.680320","MEAN_MOTION":1.86229753,"ECCENTRICITY":0.0004213,"INCLINATION":54.1319,"RA_OF_ASC_NODE":207.1215,"ARG_OF_PERICENTER":357.7312,"MEAN_ANOMALY":2.3494,"EPHEMERIS_TYPE":0,"CLASSIFICATION_TYPE":"U","NORAD_CAT_ID":43582,"ELEMENT_SET_NO":999,"REV_AT_EPOCH":4004,"BSTAR":0,"MEAN_MOTION_DOT":9.6e-7,"MEAN_MOTION_DDOT":0},{"OBJECT_NAME":"BEIDOU-3 M12 (C26)","OBJECT_ID":"2018-067A","EPOCH":"2024-06-16T15:30:47.606976","MEAN_MOTION":1.86231816,"ECCENTRICITY":0.0006645,"INCLINATION":54.2228,"RA_OF_ASC_NODE":205.8231,"ARG_OF_PERICENTER":18.0127,"MEAN_ANOMALY":342.0901,"EPHEMERIS_TYPE":0,"CLASSIFICATION_TYPE":"U","NORAD_CAT_ID":43602,"ELEMENT_SET_NO":999,"REV_AT_EPOCH":3951,"BSTAR":0,"MEAN_MOTION_DOT":9.1e-7,"MEAN_MOTION_DDOT":0}]
